{"fetched_at":"2026-07-10T18:08:24.133Z","source":"https://celestrak.org/NORAD/elements/gp.php?NAME=O3B&FORMAT=JSON","constellation":"o3b-mpower","records":[{"OBJECT_NAME":"O3B MPOWER F1","OBJECT_ID":"2022-174A","EPOCH":"2026-07-10T03:42:12.753792","CLASSIFICATION_TYPE":"U","MEAN_MOTION":5.00114723,"ECCENTRICITY":0.00065972,"INCLINATION":0.0497,"RA_OF_ASC_NODE":339.6525,"ARG_OF_PERICENTER":140.2978,"MEAN_ANOMALY":282.3238,"EPHEMERIS_TYPE":0,"NORAD_CAT_ID":54755,"ELEMENT_SET_NO":999,"REV_AT_EPOCH":6650,"BSTAR":0,"MEAN_MOTION_DOT":-1.2e-7,"MEAN_MOTION_DDOT":0},{"OBJECT_NAME":"O3B MPOWER F2","OBJECT_ID":"2022-174B","EPOCH":"2026-07-10T02:20:31.788096","CLASSIFICATION_TYPE":"U","MEAN_MOTION":5.00114907,"ECCENTRICITY":0.00058056,"INCLINATION":0.0456,"RA_OF_ASC_NODE":339.8911,"ARG_OF_PERICENTER":123.7546,"MEAN_ANOMALY":256.4191,"EPHEMERIS_TYPE":0,"NORAD_CAT_ID":54756,"ELEMENT_SET_NO":999,"REV_AT_EPOCH":6659,"BSTAR":0,"MEAN_MOTION_DOT":-1.2e-7,"MEAN_MOTION_DDOT":0},{"OBJECT_NAME":"O3B MPOWER F4","OBJECT_ID":"2023-059A","EPOCH":"2026-07-09T18:17:20.547168","CLASSIFICATION_TYPE":"U","MEAN_MOTION":5.00115417,"ECCENTRICITY":0.00077225,"INCLINATION":0.063,"RA_OF_ASC_NODE":350.778,"ARG_OF_PERICENTER":121.4867,"MEAN_ANOMALY":247.8176,"EPHEMERIS_TYPE":0,"NORAD_CAT_ID":56367,"ELEMENT_SET_NO":999,"REV_AT_EPOCH":5973,"BSTAR":0,"MEAN_MOTION_DOT":-1.1e-7,"MEAN_MOTION_DDOT":0},{"OBJECT_NAME":"O3B MPOWER F3","OBJECT_ID":"2023-059B","EPOCH":"2026-07-09T23:52:54.621696","CLASSIFICATION_TYPE":"U","MEAN_MOTION":5.00116397,"ECCENTRICITY":0.00066784,"INCLINATION":0.0637,"RA_OF_ASC_NODE":350.0967,"ARG_OF_PERICENTER":115.57,"MEAN_ANOMALY":254.4073,"EPHEMERIS_TYPE":0,"NORAD_CAT_ID":56368,"ELEMENT_SET_NO":999,"REV_AT_EPOCH":5587,"BSTAR":0,"MEAN_MOTION_DOT":-1.1e-7,"MEAN_MOTION_DDOT":0},{"OBJECT_NAME":"O3B MPOWER F5","OBJECT_ID":"2023-175A","EPOCH":"2026-07-10T02:18:20.263104","CLASSIFICATION_TYPE":"U","MEAN_MOTION":5.0011588,"ECCENTRICITY":0.00054399,"INCLINATION":0.0516,"RA_OF_ASC_NODE":9.5505,"ARG_OF_PERICENTER":117.1763,"MEAN_ANOMALY":233.3234,"EPHEMERIS_TYPE":0,"NORAD_CAT_ID":58346,"ELEMENT_SET_NO":999,"REV_AT_EPOCH":5058,"BSTAR":0,"MEAN_MOTION_DOT":-1.2e-7,"MEAN_MOTION_DDOT":0},{"OBJECT_NAME":"O3B MPOWER F6","OBJECT_ID":"2023-175B","EPOCH":"2026-07-09T19:07:20.237664","CLASSIFICATION_TYPE":"U","MEAN_MOTION":5.00115807,"ECCENTRICITY":0.00044386,"INCLINATION":0.0536,"RA_OF_ASC_NODE":1.3165,"ARG_OF_PERICENTER":105.2842,"MEAN_ANOMALY":253.4483,"EPHEMERIS_TYPE":0,"NORAD_CAT_ID":58347,"ELEMENT_SET_NO":999,"REV_AT_EPOCH":4948,"BSTAR":0,"MEAN_MOTION_DOT":-1.1e-7,"MEAN_MOTION_DDOT":0},{"OBJECT_NAME":"O3B MPOWER F7","OBJECT_ID":"2024-244A","EPOCH":"2026-07-10T01:30:47.472480","CLASSIFICATION_TYPE":"U","MEAN_MOTION":5.00115283,"ECCENTRICITY":0.00059614,"INCLINATION":0.0663,"RA_OF_ASC_NODE":343.7363,"ARG_OF_PERICENTER":120.1304,"MEAN_ANOMALY":256.1998,"EPHEMERIS_TYPE":0,"NORAD_CAT_ID":62362,"ELEMENT_SET_NO":999,"REV_AT_EPOCH":2767,"BSTAR":0,"MEAN_MOTION_DOT":-1.2e-7,"MEAN_MOTION_DDOT":0},{"OBJECT_NAME":"O3B MPOWER F8","OBJECT_ID":"2024-244B","EPOCH":"2026-07-10T05:31:02.250624","CLASSIFICATION_TYPE":"U","MEAN_MOTION":5.00115023,"ECCENTRICITY":0.0005795,"INCLINATION":0.0143,"RA_OF_ASC_NODE":357.9162,"ARG_OF_PERICENTER":99.7286,"MEAN_ANOMALY":262.421,"EPHEMERIS_TYPE":0,"NORAD_CAT_ID":62363,"ELEMENT_SET_NO":999,"REV_AT_EPOCH":2202,"BSTAR":0,"MEAN_MOTION_DOT":-1.2e-7,"MEAN_MOTION_DDOT":0},{"OBJECT_NAME":"O3B MPOWER F9","OBJECT_ID":"2025-153A","EPOCH":"2026-07-10T03:55:06.998016","CLASSIFICATION_TYPE":"U","MEAN_MOTION":5.00115666,"ECCENTRICITY":0.00066678,"INCLINATION":0.0608,"RA_OF_ASC_NODE":6.2725,"ARG_OF_PERICENTER":121.2581,"MEAN_ANOMALY":232.5301,"EPHEMERIS_TYPE":0,"NORAD_CAT_ID":64866,"ELEMENT_SET_NO":999,"REV_AT_EPOCH":2071,"BSTAR":0,"MEAN_MOTION_DOT":-1.2e-7,"MEAN_MOTION_DDOT":0},{"OBJECT_NAME":"O3B MPOWER F10","OBJECT_ID":"2025-153B","EPOCH":"2026-07-10T03:06:13.241952","CLASSIFICATION_TYPE":"U","MEAN_MOTION":5.00114852,"ECCENTRICITY":0.00023199,"INCLINATION":0.058,"RA_OF_ASC_NODE":2.7367,"ARG_OF_PERICENTER":245.0719,"MEAN_ANOMALY":112.1668,"EPHEMERIS_TYPE":0,"NORAD_CAT_ID":64867,"ELEMENT_SET_NO":999,"REV_AT_EPOCH":2318,"BSTAR":0,"MEAN_MOTION_DOT":-1.2e-7,"MEAN_MOTION_DDOT":0}]}
