O3B MPOWER F1           
1 54755U 22174A   26191.15431428 -.00000012  00000+0  00000+0 0  9991
2 54755   0.0497 339.6525 0006597 140.2978 282.3238  5.00114723 66507
O3B MPOWER F2           
1 54756U 22174B   26191.09759014 -.00000012  00000+0  00000+0 0  9999
2 54756   0.0456 339.8911 0005805 123.7546 256.4191  5.00114907 66595
O3B MPOWER F4           
1 56367U 23059A   26190.76204337 -.00000011  00000+0  00000+0 0  9997
2 56367   0.0630 350.7780 0007722 121.4867 247.8176  5.00115417 59738
O3B MPOWER F3           
1 56368U 23059B   26190.99507664 -.00000011  00000+0  00000+0 0  9992
2 56368   0.0637 350.0967 0006678 115.5700 254.4073  5.00116397 55874
O3B MPOWER F5           
1 58346U 23175A   26191.09606786 -.00000012  00000+0  00000+0 0  9997
2 58346   0.0516   9.5505 0005439 117.1763 233.3234  5.00115880 50587
O3B MPOWER F6           
1 58347U 23175B   26190.79676201 -.00000011  00000+0  00000+0 0  9992
2 58347   0.0536   1.3165 0004438 105.2842 253.4483  5.00115807 49481
O3B MPOWER F7           
1 62362U 24244A   26191.06304945 -.00000012  00000+0  00000+0 0  9997
2 62362   0.0663 343.7363 0005961 120.1304 256.1998  5.00115283 27674
O3B MPOWER F8           
1 62363U 24244B   26191.22988716 -.00000012  00000+0  00000+0 0  9990
2 62363   0.0143 357.9162 0005795  99.7286 262.4210  5.00115023 22020
O3B MPOWER F9           
1 64866U 25153A   26191.16327544 -.00000012  00000+0  00000+0 0  9999
2 64866   0.0608   6.2725 0006667 121.2581 232.5301  5.00115666 20719
O3B MPOWER F10          
1 64867U 25153B   26191.12931993 -.00000012  00000+0  00000+0 0  9995
2 64867   0.0580   2.7367 0002319 245.0719 112.1668  5.00114852 23189
